NORAD_CAT_ID,OBJECT_NAME,OBJECT_TYPE,EPOCH,MEAN_MOTION,ECCENTRICITY,INCLINATION,RA_OF_ASC_NODE,ARG_OF_PERICENTER,MEAN_ANOMALY,BSTAR,MEAN_MOTION_DOT,MEAN_MOTION_DDOT,TLE_LINE0,TLE_LINE1,TLE_LINE2,SEMIMAJOR_AXIS,PERIOD,APOGEE,PERIGEE,DECAYED
51988.0,STARLINK-3640,PAYLOAD,2023-01-03 07:25:06,15.08839459,0.0002995,53.214,212.7735,32.6108,327.5068,0.00011938,1.612e-05,0.0,0 STARLINK-3640,1 51988U 22025AJ  23003.30910863  .00001612  00000-0  11938-3 0  9995,2 51988  53.2140 212.7735 0002995  32.6108 327.5068 15.08839459 46845,6917.882,95.438,541.819,537.675,0.0
51988.0,STARLINK-3640,PAYLOAD,2023-01-04 00:54:21,15.08838617,0.000305,53.2149,209.5022,33.2483,326.87,9.1477e-05,1.168e-05,0.0,0 STARLINK-3640,1 51988U 22025AJ  23004.03775035  .00001168  00000-0  91477-4 0  9999,2 51988  53.2149 209.5022 0003050  33.2483 326.8700 15.08838617 45842,6917.885,95.438,541.86,537.64,0.0
51988.0,STARLINK-3640,PAYLOAD,2023-01-04 19:58:58,15.08849753,0.0003083999999999,53.2149,205.9335,35.033,325.0864,0.00012755,1.743e-05,0.0,0 STARLINK-3640,1 51988U 22025AJ  23004.83262177  .00001743  00000-0  12755-3 0  9995,2 51988  53.2149 205.9335 0003084  35.0330 325.0864 15.08849753 47079,6917.851,95.437,541.849,537.582,0.0
51988.0,STARLINK-3640,PAYLOAD,2023-01-05 13:28:12,15.08851482,0.0003122,53.2138,202.6629,35.9693,324.1509,0.00021559,3.145e-05,0.0,0 STARLINK-3640,1 51988U 22025AJ  23005.56125911  .00003145  00000-0  21559-3 0  9990,2 51988  53.2138 202.6629 0003122  35.9693 324.1509 15.08851482 46078,6917.845,95.437,541.87,537.5509999999998,0.0
51988.0,STARLINK-3640,PAYLOAD,2023-01-06 05:22:04,15.0883688,0.0003184,53.2137,199.6886,36.1356,323.9851,-4.2716e-05,-9.69e-06,0.0,0 STARLINK-3640,1 51988U 22025AJ  23006.22366486 -.00000969  00000-0 -42716-4 0  9990,2 51988  53.2137 199.6886 0003184  36.1356 323.9851 15.08836880 47280,6917.89,95.438,541.9580000000002,537.552,0.0
51988.0,STARLINK-3640,PAYLOAD,2023-01-06 21:15:56,15.08837167,0.0003179,53.2148,196.7148,36.1078,324.0129,-8.655e-05,-1.666e-05,0.0,0 STARLINK-3640,1 51988U 22025AJ  23006.88607103 -.00001666  00000-0 -86550-4 0  9995,2 51988  53.2148 196.7148 0003179  36.1078 324.0129 15.08837167 46273,6917.889,95.438,541.953,537.555,0.0
51988.0,STARLINK-3640,PAYLOAD,2023-01-07 05:12:52,15.08837612,0.0003188999999999,53.2149,195.2281,37.2178,322.9035,-5.51e-05,-1.166e-05,0.0,0 STARLINK-3640,1 51988U 22025AJ  23007.21727051 -.00001166  00000-0 -55100-4 0  9990,2 51988  53.2149 195.2281 0003189  37.2178 322.9035 15.08837612 46324,6917.888000000001,95.438,541.9590000000002,537.547,0.0
51988.0,STARLINK-3640,PAYLOAD,2023-01-07 09:59:01,15.08840062,0.0003127,53.2144,194.336,36.5843,323.5363,-4.2175e-05,-9.6e-06,0.0,0 STARLINK-3640,1 51988U 22025AJ  23007.41598818 -.00000960  00000-0 -42175-4 0  9998,2 51988  53.2144 194.3360 0003127  36.5843 323.5363 15.08840062 47460,6917.88,95.438,541.908,537.582,0.0
51988.0,STARLINK-3640,PAYLOAD,2023-01-07 21:06:43,15.08836723,0.0003147,53.2145,192.2544,36.983,323.1378,3.7724e-05,3.12e-06,0.0,0 STARLINK-3640,1 51988U 22025AJ  23007.87966856  .00000312  00000-0  37724-4 0  9992,2 51988  53.2145 192.2544 0003147  36.9830 323.1378 15.08836723 46420,6917.89,95.438,541.932,537.578,0.0
51988.0,STARLINK-3640,PAYLOAD,2023-01-08 05:03:38,15.0883872,0.0003176,53.2146,190.7675,37.441,322.6802,7.1639e-05,8.52e-06,0.0,0 STARLINK-3640,1 51988U 22025AJ  23008.21086695  .00000852  00000-0  71639-4 0  9997,2 51988  53.2146 190.7675 0003176  37.4410 322.6802 15.08838720 46471,6917.884,95.438,541.946,537.552,0.0
51988.0,STARLINK-3640,PAYLOAD,2023-01-08 14:35:57,15.08838191,0.0003161,53.2147,188.9832,38.0154,322.1061,0.0001506,2.109e-05,0.0,0 STARLINK-3640,1 51988U 22025AJ  23008.60830570  .00002109  00000-0  15060-3 0  9991,2 51988  53.2147 188.9832 0003161  38.0154 322.1061 15.08838191 47646,6917.886,95.438,541.938,537.564,0.0
51988.0,STARLINK-3640,PAYLOAD,2023-01-08 20:57:29,15.08843569,0.0003182,53.2147,187.7937,38.4582,321.6637,0.00015897,2.243e-05,0.0,0 STARLINK-3640,1 51988U 22025AJ  23008.87326247  .00002243  00000-0  15897-3 0  9998,2 51988  53.2147 187.7937 0003182  38.4582 321.6637 15.08843569 46570,6917.8690000000015,95.437,541.936,537.533,0.0
51988.0,STARLINK-3640,PAYLOAD,2023-01-09 11:15:58,15.08838846,0.0003249,53.2145,185.1173,39.6518,320.4711,7.0175e-05,8.28e-06,0.0,0 STARLINK-3640,1 51988U 22025AJ  23009.46942848  .00000828  00000-0  70175-4 0  9993,2 51988  53.2145 185.1173 0003249  39.6518 320.4711 15.08838846 46660,6917.884,95.438,541.997,537.501,0.0
51988.0,STARLINK-3640,PAYLOAD,2023-01-09 17:37:31,15.08840565,0.0003213,53.2144,183.9274,39.8043,320.3184,7.1602e-05,8.51e-06,0.0,0 STARLINK-3640,1 51988U 22025AJ  23009.73438707  .00000851  00000-0  71602-4 0  9999,2 51988  53.2144 183.9274 0003213  39.8043 320.3184 15.08840565 47815,6917.879,95.438,541.966,537.521,0.0
51988.0,STARLINK-3640,PAYLOAD,2023-01-10 11:06:45,15.08847657,0.0003471,53.2134,180.6554,46.7184,313.4097,2.8267e-05,1.61e-06,0.0,0 STARLINK-3640,1 51988U 22025AJ  23010.46302290  .00000161  00000-0  28267-4 0  9991,2 51988  53.2134 180.6554 0003471  46.7184 313.4097 15.08847657 46812,6917.857,95.437,542.123,537.321,0.0
51988.0,STARLINK-3640,PAYLOAD,2023-01-10 14:17:31,15.08842466,0.0003203,53.2146,180.06,44.3148,315.81,-6.1099e-06,-3.86e-06,0.0,0 STARLINK-3640,1 51988U 22025AJ  23010.59550565 -.00000386  00000-0 -61099-5 0  9997,2 51988  53.2146 180.0600 0003203  44.3148 315.8100 15.08842466 46834,6917.873000000001,95.437,541.9540000000002,537.5219999999998,0.0
51988.0,STARLINK-3640,PAYLOAD,2023-01-11 14:08:18,15.08841077,0.0002964,53.2147,175.5996,43.0912,317.0312,0.00011111,1.4800000000000002e-05,0.0,0 STARLINK-3640,1 51988U 22025AJ  23011.58910005  .00001480  00000-0  11111-3 0  9998,2 51988  53.2147 175.5996 0002964  43.0912 317.0312 15.08841077 48096,6917.877,95.437,541.793,537.692,0.0
51988.0,STARLINK-3640,PAYLOAD,2023-01-13 15:25:07,15.08884237,0.0009531,53.2359,166.3455,216.541,143.4933,0.00076118,0.0001187,0.0,0 STARLINK-3640,1 51988U 22025AJ  23013.64245222  .00011870  00000-0  76118-3 0  9991,2 51988  53.2359 166.3455 0009531 216.5410 143.4933 15.08884237 48406,6917.745,95.435,546.203,533.0169999999999,0.0
51988.0,STARLINK-3640,PAYLOAD,2023-01-14 02:32:59,15.088126999999998,0.0003024,53.2132,164.3012,49.6688,310.4568,-8.2095e-05,-1.594e-05,0.0,0 STARLINK-3640,1 51988U 22025AJ  23014.10623870 -.00001594  00000-0 -82095-4 0  9998,2 51988  53.2132 164.3012 0003024  49.6688 310.4568 15.08812700 48478,6917.964,95.439,541.9209999999999,537.737,0.0
51988.0,STARLINK-3640,PAYLOAD,2023-01-14 10:29:54,15.08809992,0.0002863999999999,53.2154,162.8147,45.7519,314.3708,7.8897e-05,9.66e-06,0.0,0 STARLINK-3640,1 51988U 22025AJ  23014.43743337  .00000966  00000-0  78897-4 0  9990,2 51988  53.2154 162.8147 0002864  45.7519 314.3708 15.08809992 48529,6917.972,95.439,541.818,537.856,0.0
51988.0,STARLINK-3640,PAYLOAD,2023-01-14 16:51:26,15.08820676,0.0003028,53.215,161.6253,45.4327,314.6912,9.9162e-05,1.289e-05,0.0,0 STARLINK-3640,1 51988U 22025AJ  23014.70239400  .00001289  00000-0  99162-4 0  9998,2 51988  53.2150 161.6253 0003028  45.4327 314.6912 15.08820676 48563,6917.939,95.439,541.899,537.71,0.0
51988.0,STARLINK-3640,PAYLOAD,2023-01-15 13:31:28,15.08824161,0.0002973999999999,53.2147,157.7598,49.0846,311.0403,0.00011753,1.582e-05,0.0,0 STARLINK-3640,1 51988U 22025AJ  23015.56352432  .00001582  00000-0  11753-3 0  9999,2 51988  53.2147 157.7598 0002974  49.0846 311.0403 15.08824161 47582,6917.929,95.439,541.851,537.736,0.0
51988.0,STARLINK-3640,PAYLOAD,2023-01-15 16:42:14,15.08828007,0.0003015,53.2144,157.1651,50.1398,309.9859,0.00014775,2.063e-05,0.0,0 STARLINK-3640,1 51988U 22025AJ  23015.69600302  .00002063  00000-0  14775-3 0  9997,2 51988  53.2144 157.1651 0003015  50.1398 309.9859 15.08828007 47602,6917.917,95.438,541.868,537.696,0.0
51988.0,STARLINK-3640,PAYLOAD,2023-01-16 02:14:33,15.08834812,0.0002951,53.2139,155.3787,51.3868,308.7388,0.00023916,3.519e-05,0.0,0 STARLINK-3640,1 51988U 22025AJ  23016.09344406  .00003519  00000-0  23916-3 0  9996,2 51988  53.2139 155.3787 0002951  51.3868 308.7388 15.08834812 48773,6917.896,95.438,541.803,537.72,0.0
51988.0,STARLINK-3640,PAYLOAD,2023-01-16 13:22:15,15.08834839,0.000293,53.2133,153.298,54.5059,305.6207,0.00025851,3.828e-05,0.0,0 STARLINK-3640,1 51988U 22025AJ  23016.55712713  .00003828  00000-0  25851-3 0  9990,2 51988  53.2133 153.2980 0002930  54.5059 305.6207 15.08834839 47733,6917.896,95.438,541.788,537.734,0.0
51988.0,STARLINK-3640,PAYLOAD,2023-01-16 16:33:01,15.08849331,0.0002849,53.2134,152.7031,57.7814,302.3454,4.2543e-05,3.89e-06,0.0,0 STARLINK-3640,1 51988U 22025AJ  23016.68959805  .00000389  00000-0  42543-4 0  9996,2 51988  53.2134 152.7031 0002849  57.7814 302.3454 15.08849331 48864,6917.852,95.437,541.688,537.746,0.0
51988.0,STARLINK-3640,PAYLOAD,2023-01-17 02:05:20,15.08835236,0.0002785,53.2139,150.9204,56.4323,303.6934,0.00014455,2.013e-05,0.0,0 STARLINK-3640,1 51988U 22025AJ  23017.08704832  .00002013  00000-0  14455-3 0  9995,2 51988  53.2139 150.9204 0002785  56.4323 303.6934 15.08835236 48924,6917.895,95.438,541.687,537.8330000000001,0.0
51988.0,STARLINK-3640,PAYLOAD,2023-01-17 14:48:26,15.08829822,0.0002644,53.214,148.5409,60.578,299.5476,4.4196e-05,4.15e-06,0.0,0 STARLINK-3640,1 51988U 22025AJ  23017.61697405  .00000415  00000-0  44196-4 0  9991,2 51988  53.2140 148.5409 0002644  60.5780 299.5476 15.08829822 47896,6917.911,95.438,541.606,537.947,0.0
51988.0,STARLINK-3640,PAYLOAD,2023-01-18 09:53:03,15.08848593,0.0002595,53.2142,144.9722,63.5253,296.6005,0.00033472,5.044e-05,0.0,0 STARLINK-3640,1 51988U 22025AJ  23018.41184869  .00005044  00000-0  33472-3 0  9992,2 51988  53.2142 144.9722 0002595  63.5253 296.6005 15.08848593 49129,6917.854,95.437,541.514,537.924,0.0
